STARLINK-4540           
1 53428U 22097AS  24231.88593935  .00001714  00000+0  12572-3 0  9996
2 53428  53.2176 133.1758 0000736  83.8873 276.2203 15.08851785112586
STARLINK-4543           
1 53429U 22097AT  24231.88963084 -.00000453  00000+0 -10395-4 0  9996
2 53429  53.2155 133.1888 0001183 110.7875 249.3244 15.08835480112587
STARLINK-4538           
1 53430U 22097AU  24231.88226945 -.00001579  00000+0 -81147-4 0  9999
2 53430  53.2154 133.1402 0001396  98.5594 261.5556 15.08824067112588
STARLINK-4548           
1 53431U 22097AV  24231.17932910  .00000415  00000+0  44151-4 0  9998
2 53431  53.2167 135.8759 0001243  85.9765 274.1369 15.08841612112484
STARLINK-4557           
1 53432U 22097AW  24231.06158756  .00012297  00000+0  78936-3 0  9993
2 53432  53.2150 136.5576 0001362  83.1889 276.9258 15.08839066112949
STARLINK-4549           
1 53433U 22097AX  24231.87858341 -.00001839  00000+0 -97524-4 0  9997
2 53433  53.2154 133.1229 0001511 100.8593 259.2569 15.08831926112583
STARLINK-4498           
1 53434U 22097AY  24231.12413824 -.00000632  00000+0 -21618-4 0  9990
2 53434  53.2164 136.2326 0001332  87.0945 273.0200 15.08842933112479
STARLINK-4542           
1 53435U 22097AZ  24231.06527248  .00000485  00000+0  48568-4 0  9997
2 53435  53.2156 136.5763 0001296  94.6546 265.4594 15.08840480112925
STARLINK-4527           
1 53436U 22097BA  24231.12045306 -.00001352  00000+0 -66861-4 0  9997
2 53436  53.2164 136.2105 0001304  89.1639 270.9503 15.08852499112951
STARLINK-4526           
1 53438U 22097BC  24231.11676954  .00011768  00000+0  75611-3 0  9999
2 53438  53.2165 136.1868 0001270  97.2462 262.8674 15.08845248112969
STARLINK-4519           
1 53439U 22097BD  24231.12878485  .00008721  00000+0  56526-3 0  9993
2 53439  53.2149 136.2618 0001305  96.4798 263.6343 15.08843884112470
STARLINK-4415           
1 53465U 22099A   24231.84946596  .00000585  00000+0  50123-4 0  9990
2 53465  97.6543 351.7827 0001000 260.1221  99.9890 15.01257832111031
STARLINK-4398           
1 53466U 22099B   24231.84971403 -.00000497  00000+0 -34134-4 0  9994
2 53466  97.6542 351.7803 0000456 131.7197 228.4066 15.01256796111025
STARLINK-4394           
1 53467U 22099C   24231.84575537 -.00000058  00000+0  11879-6 0  9998
2 53467  97.6549 351.8295 0002955 257.9041 102.1852 15.01257063111023
STARLINK-4400           
1 53468U 22099D   24231.84600204 -.00000582  00000+0 -40719-4 0  9995
2 53468  97.6532 351.7739 0003130 258.3639 101.7233 15.01258554111026
STARLINK-4399           
1 53469U 22099E   24231.84205408 -.00000354  00000+0 -22981-4 0  9991
2 53469  97.6560 351.7723 0003939 248.8804 111.1999 15.01255600111029
STARLINK-4393           
1 53470U 22099F   24231.84390450  .00000921  00000+0  76349-4 0  9990
2 53470  97.6556 351.7728 0004084 260.8321  99.2441 15.01253192111023
STARLINK-4316           
1 53471U 22099G   24231.23847774  .00000530  00000+0  45891-4 0  9994
2 53471  97.6575 351.1791 0004181 244.4204 115.6588 15.01263820110691
STARLINK-4447           
1 53472U 22099H   24231.84020454 -.00000088  00000+0 -22149-5 0  9992
2 53472  97.6557 351.7697 0003966 246.3230 113.7578 15.01255495111028
STARLINK-4383           
1 53473U 22099J   24231.83465074 -.00000498  00000+0 -34210-4 0  9999
2 53473  97.6571 351.7697 0002967 238.9336 121.1597 15.01250541111020
STARLINK-4445           
1 53474U 22099K   24231.82749260  .00002868  00000+0  22784-3 0  9994
2 53474  97.6612 351.7667 0001255 273.4581  86.6499 15.01253932111022
STARLINK-4389           
1 53475U 22099L   24231.29957503  .00004508  00000+0  35539-3 0  9992
2 53475  97.6567 351.2387 0001219 231.3062 128.8053 15.01252167110947
STARLINK-4378           
1 53476U 22099M   24231.83650068  .00003358  00000+0  26592-3 0  9990
2 53476  97.6564 351.7669 0003401 235.3685 124.7219 15.01253254111020
STARLINK-4412           
1 53477U 22099N   24231.83489636  .00000797  00000+0  66672-4 0  9990
2 53477  97.6561 351.7502 0001903 256.2318 103.8695 15.01258285111029
STARLINK-4433           
1 53478U 22099P   24231.82909730  .00001181  00000+0  96567-4 0  9996
2 53478  97.6623 351.7820 0001553 253.2902 106.8151 15.01256354111024
STARLINK-4436           
1 53479U 22099Q   24231.29402384  .00002631  00000+0  20934-3 0  9996
2 53479  97.6612 351.2404 0001432 264.9558  95.1503 15.01265999110944
STARLINK-4442           
1 53480U 22099R   24231.83094205 -.00003329  00000+0 -25451-3 0  9993
2 53480  97.6586 351.7651 0001830 270.7224  89.3790 15.01283874111027
STARLINK-4302           
1 53481U 22099S   24231.82539364  .00003413  00000+0  27021-3 0  9990
2 53481  97.6611 351.7666 0000712 289.3707  70.7440 15.01261384111021
STARLINK-4360           
1 53482U 22099T   24231.88094219 -.00001370  00000+0 -10207-3 0  9992
2 53482  97.6546 351.8504 0001249 103.1882 256.9481 15.01255509111030
STARLINK-4401           
1 53483U 22099U   24231.34586972  .00001296  00000+0  10544-3 0  9995
2 53483  97.6614 351.3262 0002029  77.0287 283.1164 15.01268013110952
STARLINK-4426           
1 53484U 22099V   24231.82354972  .00003608  00000+0  28540-3 0  9996
2 53484  97.6604 351.7680 0000330 347.0450  13.0765 15.01255836111020
STARLINK-4430           
1 53485U 22099W   24231.21811773  .00001415  00000+0  11473-3 0  9998
2 53485  97.6588 351.1730 0000621 113.5148 246.6142 15.01265709110690
STARLINK-4431           
1 53486U 22099X   24231.88835194  .00000097  00000+0  12103-4 0  9992
2 53486  97.6552 351.8254 0001237  91.4381 268.6985 15.01271016111033
STARLINK-4432           
1 53487U 22099Y   24231.88859385  .00000318  00000+0  29309-4 0  9993
2 53487  97.6577 351.8097 0000438  71.3754 288.7518 15.01258792111030
STARLINK-4421           
1 53488U 22099Z   24231.88647941 -.00004871  00000+0 -37495-3 0  9991
2 53488  97.6571 351.8296 0000466 112.4246 247.7027 15.01259463111036
STARLINK-4392           
1 53489U 22099AA  24231.88672728 -.00010146  00000+0 -78662-3 0  9996
2 53489  97.6565 351.8124 0000712  92.4813 267.6493 15.01254115111038
STARLINK-4387           
1 53490U 22099AB  24231.21627331  .00001474  00000+0  11931-3 0  9993
2 53490  97.6597 351.1751 0001573  14.7750 345.3520 15.01258381110692
STARLINK-4450           
1 53491U 22099AC  24231.87193664  .00000265  00000+0  25253-4 0  9993
2 53491  97.6558 351.8266 0002074  90.5048 269.6414 15.01256869111035
STARLINK-4451           
1 53492U 22099AD  24231.87724496 -.00001208  00000+0 -89458-4 0  9994
2 53492  97.6569 351.8303 0002024  91.4078 268.7378 15.01255140111038
STARLINK-4361           
1 53493U 22099AE  24231.87539501 -.00000104  00000+0 -34660-5 0  9996
2 53493  97.6558 351.8148 0002106  92.9393 267.2072 15.01257625111036
STARLINK-4340           
1 53494U 22099AF  24231.87934049  .00002916  00000+0  23160-3 0  9995
2 53494  97.6563 351.8205 0002200  92.4703 267.6774 15.01252007111034
STARLINK-4429           
1 53495U 22099AG  24231.86983829 -.00000110  00000+0 -39608-5 0  9997
2 53495  97.6554 351.8153 0002040  75.0778 285.0672 15.01255761111040
STARLINK-4465           
1 53496U 22099AH  24231.87354147  .00000211  00000+0  21039-4 0  9992
2 53496  97.6553 351.8199 0002261  85.7103 274.4380 15.01255249111033
STARLINK-4453           
1 53497U 22099AJ  24231.86613873 -.00001671  00000+0 -12548-3 0  9993
2 53497  97.6554 351.8112 0002027  71.9114 288.2331 15.01263318111045
STARLINK-4439           
1 53498U 22099AK  24231.26651126 -.00000554  00000+0 -38544-4 0  9995
2 53498  97.6577 351.2340 0001466  51.5010 308.6346 15.01254482110700
STARLINK-4454           
1 53499U 22099AL  24231.87169084 -.00000862  00000+0 -62511-4 0  9993
2 53499  97.6552 351.8013 0001803  90.9480 269.1951 15.01259019111031
STARLINK-4455           
1 53500U 22099AM  24231.86798711  .00000901  00000+0  74763-4 0  9994
2 53500  97.6554 351.8106 0002306  86.4718 273.6770 15.01259257111046
STARLINK-4434           
1 53501U 22099AN  24231.85873822  .00006222  00000+0  48829-3 0  9996
2 53501  97.6557 351.7995 0001873  94.2077 265.9361 15.01284505111031
STARLINK-4435           
1 53502U 22099AP  24231.86428099 -.00000364  00000+0 -23752-4 0  9992
2 53502  97.6549 351.8077 0001543 106.7045 253.4349 15.01256317111031
STARLINK-4461           
1 53503U 22099AQ  24231.53126594 -.00002713  00000+0 -20677-3 0  9994
2 53503  97.6557 351.4657 0001829  73.8708 286.2718 15.01250125110986
STARLINK-4448           
1 53504U 22099AR  24231.26255803  .00002046  00000+0  16383-3 0  9997
2 53504  97.6557 351.2145 0001709 100.5163 259.6254 15.01264617110707
STARLINK-4446           
1 53505U 22099AS  24231.85503042 -.00000663  00000+0 -47036-4 0  9999
2 53505  97.6551 351.7951 0001463  94.2034 265.9358 15.01253228111033
STARLINK-4437           
1 53506U 22099AT  24231.86058133 -.00000447  00000+0 -30228-4 0  9992
2 53506  97.6557 351.7958 0001769 102.7864 257.3558 15.01253640111037
STARLINK-4444           
1 53507U 22099AU  24231.85317263 -.00000007  00000+0  40155-5 0  9996
2 53507  97.6535 351.7895 0000761 102.2933 257.8377 15.01257023111030
STARLINK-4443           
1 53508U 22099AV  24231.25700188  .00000421  00000+0  37327-4 0  9998
2 53508  97.6530 351.2064 0001000  84.3355 275.7983 15.01262232110707
STARLINK-4402           
1 53509U 22099AW  24231.85131864 -.00000721  00000+0 -51574-4 0  9999
2 53509  97.6549 351.7815 0000414 265.7935  94.3241 15.01258935111038
STARLINK-4441           
1 53510U 22099AX  24231.84761365 -.00000364  00000+0 -23721-4 0  9991
2 53510  97.6551 351.7909 0001158 243.0894 117.0212 15.01246841111030
STARLINK-4511           
1 53527U 22101A   24231.03861582  .00000367  00000+0  41161-4 0  9995
2 53527  53.2163 106.8919 0001225  94.5245 265.5887 15.08842181110312
STARLINK-4503           
1 53528U 22101B   24231.83717382  .00007615  00000+0  49593-3 0  9991
2 53528  53.2153 103.3144 0000951 106.9068 253.2028 15.08846146110439
